[Satellite]
VERSION=1.1
NAME=TIANGONG 1
NICKNAME=TIANGONG 1
TLE1=1 37820U 11053A   17186.16913919  .00022960  00000-0  12270-3 0  9996
TLE2=2 37820  42.7594  89.8036 0019190 210.3060 272.4378 15.79611509330811
